{
  "type": "FeatureCollection",
  "features": [
    {
      "type": "Feature",
      "properties": {
        "norad_id": 41599,
        "name": "CARTOSAT-2C",
        "group": "resource",
        "lat": -47.63062432104658,
        "lon": -135.71537757423752,
        "alt_km": 522.5743638122885,
        "timestamp": "2025-12-21T09:37:22.305742+00:00",
        "meta_object_name": "CARTOSAT-2C",
        "meta_object_id": "2016-040A",
        "meta_epoch": "2025-12-21T03:52:46.813152",
        "meta_mean_motion": 15.19184303,
        "meta_eccentricity": 0.0010987,
        "meta_inclination": 97.4759,
        "meta_ra_of_asc_node": 52.3251,
        "meta_arg_of_pericenter": 36.8296,
        "meta_mean_anomaly": 323.3691,
        "meta_ephemeris_type": 0,
        "meta_classification_type": "U",
        "meta_norad_cat_id": 41599,
        "meta_element_set_no": 999,
        "meta_rev_at_epoch": 52668,
        "meta_bstar": 0.00012834,
        "meta_mean_motion_dot": 2.634e-05,
        "meta_mean_motion_ddot": 0,
        "tle_line1": "1 41599U 16040A   25355.16165293  .00002634  00000+0  12834-3 0  9997",
        "tle_line2": "2 41599  97.4759  52.3251 0010987  36.8296 323.3691 15.19184303526687"
      },
      "geometry": {
        "type": "Point",
        "coordinates": [
          -135.71537757423752,
          -47.63062432104658
        ]
      }
    },
    {
      "type": "Feature",
      "properties": {
        "norad_id": 41601,
        "name": "SKYSAT-C1",
        "group": "resource",
        "lat": -18.069302707860412,
        "lon": 34.21767208709704,
        "alt_km": 471.83354530134784,
        "timestamp": "2025-12-21T09:37:22.305752+00:00",
        "meta_object_name": "SKYSAT-C1",
        "meta_object_id": "2016-040C",
        "meta_epoch": "2025-12-21T01:52:04.162080",
        "meta_mean_motion": 15.32727522,
        "meta_eccentricity": 0.0001409,
        "meta_inclination": 96.9809,
        "meta_ra_of_asc_node": 31.6216,
        "meta_arg_of_pericenter": 345.105,
        "meta_mean_anomaly": 15.0151,
        "meta_ephemeris_type": 0,
        "meta_classification_type": "U",
        "meta_norad_cat_id": 41601,
        "meta_element_set_no": 999,
        "meta_rev_at_epoch": 53055,
        "meta_bstar": 0.00019483,
        "meta_mean_motion_dot": 6.086e-05,
        "meta_mean_motion_ddot": 0,
        "tle_line1": "1 41601U 16040C   25355.07782595  .00006086  00000+0  19483-3 0  9993",
        "tle_line2": "2 41601  96.9809  31.6216 0001409 345.1050  15.0151 15.32727522530553"
      },
      "geometry": {
        "type": "Point",
        "coordinates": [
          34.21767208709704,
          -18.069302707860412
        ]
      }
    },
    {
      "type": "Feature",
      "properties": {
        "norad_id": 41603,
        "name": "LAPAN-A3",
        "group": "resource",
        "lat": 82.53554909344068,
        "lon": -114.20470007542443,
        "alt_km": 468.9764812485719,
        "timestamp": "2025-12-21T09:37:22.305763+00:00",
        "meta_object_name": "LAPAN-A3",
        "meta_object_id": "2016-040E",
        "meta_epoch": "2025-12-21T04:31:04.298016",
        "meta_mean_motion": 15.31613794,
        "meta_eccentricity": 0.0008885,
        "meta_inclination": 97.1425,
        "meta_ra_of_asc_node": 352.4372,
        "meta_arg_of_pericenter": 299.4606,
        "meta_mean_anomaly": 60.5749,
        "meta_ephemeris_type": 0,
        "meta_classification_type": "U",
        "meta_norad_cat_id": 41603,
        "meta_element_set_no": 999,
        "meta_rev_at_epoch": 52755,
        "meta_bstar": 9.6882e-05,
        "meta_mean_motion_dot": 2.886e-05,
        "meta_mean_motion_ddot": 0,
        "tle_line1": "1 41603U 16040E   25355.18824419  .00002886  00000+0  96882-4 0  9992",
        "tle_line2": "2 41603  97.1425 352.4372 0008885 299.4606  60.5749 15.31613794527550"
      },
      "geometry": {
        "type": "Point",
        "coordinates": [
          -114.20470007542443,
          82.53554909344068
        ]
      }
    },
    {
      "type": "Feature",
      "properties": {
        "norad_id": 41604,
        "name": "BIROS",
        "group": "resource",
        "lat": -23.286482538027915,
        "lon": 30.263440509815922,
        "alt_km": 301.9427081572712,
        "timestamp": "2025-12-21T09:37:22.305774+00:00",
        "meta_object_name": "BIROS",
        "meta_object_id": "2016-040F",
        "meta_epoch": "2025-12-21T00:40:29.531712",
        "meta_mean_motion": 15.92820677,
        "meta_eccentricity": 0.0003709,
        "meta_inclination": 97.0689,
        "meta_ra_of_asc_node": 26.8121,
        "meta_arg_of_pericenter": 133.4081,
        "meta_mean_anomaly": 226.7504,
        "meta_ephemeris_type": 0,
        "meta_classification_type": "U",
        "meta_norad_cat_id": 41604,
        "meta_element_set_no": 999,
        "meta_rev_at_epoch": 53004,
        "meta_bstar": 0.00051492,
        "meta_mean_motion_dot": 0.00176298,
        "meta_mean_motion_ddot": 1.357e-05,
        "tle_line1": "1 41604U 16040F   25355.02811958  .00176298  13570-4  51492-3 0  9997",
        "tle_line2": "2 41604  97.0689  26.8121 0003709 133.4081 226.7504 15.92820677530040"
      },
      "geometry": {
        "type": "Point",
        "coordinates": [
          30.263440509815922,
          -23.286482538027915
        ]
      }
    },
    {
      "type": "Feature",
      "properties": {
        "norad_id": 41727,
        "name": "GAOFEN-3",
        "group": "resource",
        "lat": -32.08105553543831,
        "lon": 6.171726509550312,
        "alt_km": 757.2327064733809,
        "timestamp": "2025-12-21T09:37:22.305788+00:00",
        "meta_object_name": "GAOFEN-3",
        "meta_object_id": "2016-049A",
        "meta_epoch": "2025-12-21T04:46:40.391904",
        "meta_mean_motion": 14.42215935,
        "meta_eccentricity": 0.0001243,
        "meta_inclination": 98.4031,
        "meta_ra_of_asc_node": 0.6564,
        "meta_arg_of_pericenter": 57.4323,
        "meta_mean_anomaly": 302.6987,
        "meta_ephemeris_type": 0,
        "meta_classification_type": "U",
        "meta_norad_cat_id": 41727,
        "meta_element_set_no": 999,
        "meta_rev_at_epoch": 49299,
        "meta_bstar": 6.0352e-05,
        "meta_mean_motion_dot": 1.55e-06,
        "meta_mean_motion_ddot": 0,
        "tle_line1": "1 41727U 16049A   25355.19907861  .00000155  00000+0  60352-4 0  9992",
        "tle_line2": "2 41727  98.4031   0.6564 0001243  57.4323 302.6987 14.42215935492997"
      },
      "geometry": {
        "type": "Point",
        "coordinates": [
          6.171726509550312,
          -32.08105553543831
        ]
      }
    },
    {
      "type": "Feature",
      "properties": {
        "norad_id": 41771,
        "name": "SKYSAT-C4",
        "group": "resource",
        "lat": -38.99635485222877,
        "lon": -165.48865857170028,
        "alt_km": 445.43784937473356,
        "timestamp": "2025-12-21T09:37:22.305798+00:00",
        "meta_object_name": "SKYSAT-C4",
        "meta_object_id": "2016-058B",
        "meta_epoch": "2025-12-21T00:53:26.064672",
        "meta_mean_motion": 15.42468252,
        "meta_eccentricity": 0.0002231,
        "meta_inclination": 96.9361,
        "meta_ra_of_asc_node": 19.8219,
        "meta_arg_of_pericenter": 128.0072,
        "meta_mean_anomaly": 232.1378,
        "meta_ephemeris_type": 0,
        "meta_classification_type": "U",
        "meta_norad_cat_id": 41771,
        "meta_element_set_no": 999,
        "meta_rev_at_epoch": 51795,
        "meta_bstar": 0.00024326,
        "meta_mean_motion_dot": 0.00010455,
        "meta_mean_motion_ddot": 0,
        "tle_line1": "1 41771U 16058B   25355.03710723  .00010455  00000+0  24326-3 0  9997",
        "tle_line2": "2 41771  96.9361  19.8219 0002231 128.0072 232.1378 15.42468252517956"
      },
      "geometry": {
        "type": "Point",
        "coordinates": [
          -165.48865857170028,
          -38.99635485222877
        ]
      }
    },
    {
      "type": "Feature",
      "properties": {
        "norad_id": 41772,
        "name": "SKYSAT-C5",
        "group": "resource",
        "lat": -55.61125074934859,
        "lon": -151.66325067769722,
        "alt_km": 468.4337195771459,
        "timestamp": "2025-12-21T09:37:22.305808+00:00",
        "meta_object_name": "SKYSAT-C5",
        "meta_object_id": "2016-058C",
        "meta_epoch": "2025-12-21T02:20:02.063040",
        "meta_mean_motion": 15.34013342,
        "meta_eccentricity": 0.0003794,
        "meta_inclination": 97.0744,
        "meta_ra_of_asc_node": 38.5001,
        "meta_arg_of_pericenter": 251.7619,
        "meta_mean_anomaly": 108.3212,
        "meta_ephemeris_type": 0,
        "meta_classification_type": "U",
        "meta_norad_cat_id": 41772,
        "meta_element_set_no": 999,
        "meta_rev_at_epoch": 51644,
        "meta_bstar": 0.0001914,
        "meta_mean_motion_dot": 6.225e-05,
        "meta_mean_motion_ddot": 0,
        "tle_line1": "1 41772U 16058C   25355.09724610  .00006225  00000+0  19140-3 0  9992",
        "tle_line2": "2 41772  97.0744  38.5001 0003794 251.7619 108.3212 15.34013342516448"
      },
      "geometry": {
        "type": "Point",
        "coordinates": [
          -151.66325067769722,
          -55.61125074934859
        ]
      }
    }
  ]
}